[{"OBJECT_NAME":"CURIUM ONE","OBJECT_ID":"2024-128H","EPOCH":"2026-03-09T16:29:14.303904","MEAN_MOTION":15.10847276,"ECCENTRICITY":0.00508907,"INCLINATION":61.979,"RA_OF_ASC_NODE":197.7537,"ARG_OF_PERICENTER":110.7183,"MEAN_ANOMALY":249.9377,"EPHEMERIS_TYPE":0,"CLASSIFICATION_TYPE":"U","NORAD_CAT_ID":60242,"ELEMENT_SET_NO":999,"REV_AT_EPOCH":9141,"BSTAR":0.00074106619,"MEAN_MOTION_DOT":0.00012574,"MEAN_MOTION_DDOT":0},{"OBJECT_NAME":"TRANSPORTER-15 OBJECT DD","OBJECT_ID":"2025-276DD","EPOCH":"2026-03-09T18:14:00.417120","MEAN_MOTION":15.21415717,"ECCENTRICITY":0.00010897,"INCLINATION":97.4276,"RA_OF_ASC_NODE":144.305,"ARG_OF_PERICENTER":138.099,"MEAN_ANOMALY":222.0329,"EPHEMERIS_TYPE":0,"CLASSIFICATION_TYPE":"U","NORAD_CAT_ID":66765,"ELEMENT_SET_NO":999,"REV_AT_EPOCH":1534,"BSTAR":0.00044710703,"MEAN_MOTION_DOT":9.972e-5,"MEAN_MOTION_DDOT":0}]
