CURIUM ONE              
1 60242U 24128H   26068.68697111  .00012574  00000+0  74107-3 0  9992
2 60242  61.9790 197.7537 0050891 110.7183 249.9377 15.10847276 91418
TRANSPORTER-15 OBJECT DD
1 66765U 25276DD  26068.75972705  .00009972  00000+0  44711-3 0  9992
2 66765  97.4276 144.3050 0001090 138.0990 222.0329 15.21415717 15341
